{
    "links": {
        "self": "http://www.neowsapp.com/rest/v1/neo/3695651?api_key=iIulBulltgU6a56xZRHN4H3l9WmuAYTsLGpBGhQ2"
    },
    "id": "3695651",
    "neo_reference_id": "3695651",
    "name": "(2014 UG192)",
    "designation": "2014 UG192",
    "nasa_jpl_url": "http://ssd.jpl.nasa.gov/sbdb.cgi?sstr=3695651",
    "absolute_magnitude_h": 23.4,
    "estimated_diameter": {
        "kilometers": {
            "estimated_diameter_min": 0.0555334912,
            "estimated_diameter_max": 0.1241766613
        },
        "meters": {
            "estimated_diameter_min": 55.5334911581,
            "estimated_diameter_max": 124.1766612574
        },
        "miles": {
            "estimated_diameter_min": 0.0345069009,
            "estimated_diameter_max": 0.0771597762
        },
        "feet": {
            "estimated_diameter_min": 182.1964991311,
            "estimated_diameter_max": 407.4037573197
        }
    },
    "is_potentially_hazardous_asteroid": false,
    "close_approach_data": [
        {
            "close_approach_date": "2008-05-10",
            "close_approach_date_full": "2008-May-10 10:52",
            "epoch_date_close_approach": 1210416720000,
            "relative_velocity": {
                "kilometers_per_second": "22.54070257",
                "kilometers_per_hour": "81146.5292521717",
                "miles_per_hour": "50421.2975789397"
            },
            "miss_distance": {
                "astronomical": "0.3654518146",
                "lunar": "142.1607558794",
                "kilometers": "54670813.051794902",
                "miles": "33970867.9803055676"
            },
            "orbiting_body": "Earth"
        },
        {
            "close_approach_date": "2010-05-25",
            "close_approach_date_full": "2010-May-25 08:22",
            "epoch_date_close_approach": 1274775720000,
            "relative_velocity": {
                "kilometers_per_second": "13.9956707183",
                "kilometers_per_hour": "50384.4145860456",
                "miles_per_hour": "31306.9158298682"
            },
            "miss_distance": {
                "astronomical": "0.1615216439",
                "lunar": "62.8319194771",
                "kilometers": "24163293.886338493",
                "miles": "15014374.5951694834"
            },
            "orbiting_body": "Earth"
        },
        {
            "close_approach_date": "2014-10-09",
            "close_approach_date_full": "2014-Oct-09 11:34",
            "epoch_date_close_approach": 1412854440000,
            "relative_velocity": {
                "kilometers_per_second": "13.2124534478",
                "kilometers_per_hour": "47564.8324120206",
                "miles_per_hour": "29554.9371173469"
            },
            "miss_distance": {
                "astronomical": "0.0723129944",
                "lunar": "28.1297548216",
                "kilometers": "10817869.935561928",
                "miles": "6721912.6787254864"
            },
            "orbiting_body": "Earth"
        },
        {
            "close_approach_date": "2016-10-25",
            "close_approach_date_full": "2016-Oct-25 13:54",
            "epoch_date_close_approach": 1477403640000,
            "relative_velocity": {
                "kilometers_per_second": "21.5755667221",
                "kilometers_per_hour": "77672.0401997184",
                "miles_per_hour": "48262.3852007639"
            },
            "miss_distance": {
                "astronomical": "0.2894350112",
                "lunar": "112.5902193568",
                "kilometers": "43298861.178946144",
                "miles": "26904664.7507150272"
            },
            "orbiting_body": "Earth"
        }
    ],
    "orbital_data": {
        "orbit_id": "8",
        "orbit_determination_date": "2017-04-06 08:37:39",
        "first_observation_date": "2014-10-23",
        "last_observation_date": "2014-11-15",
        "data_arc_in_days": 23,
        "observations_used": 40,
        "orbit_uncertainty": "8",
        "minimum_orbit_intersection": ".0634189",
        "jupiter_tisserand_invariant": "4.178",
        "epoch_osculation": "2456960.5",
        "eccentricity": ".4716744964117238",
        "semi_major_axis": "1.613165996477237",
        "inclination": "14.17255087695856",
        "ascending_node_longitude": "30.22086734076035",
        "orbital_period": "748.3711129720037",
        "perihelion_distance": ".8522767374603194",
        "perihelion_argument": "284.672101816019",
        "aphelion_distance": "2.374055255494155",
        "perihelion_time": "2456892.886327605540",
        "mean_anomaly": "32.52520259011678",
        "mean_motion": ".4810447567522124",
        "equinox": "J2000",
        "orbit_class": {
            "orbit_class_type": "APO",
            "orbit_class_description": "Near-Earth asteroid orbits which cross the Earth’s orbit similar to that of 1862 Apollo",
            "orbit_class_range": "a (semi-major axis) > 1.0 AU; q (perihelion) < 1.017 AU"
        }
    },
    "is_sentry_object": false
}